0 COSMOS 2397
1 27775U 03015A   13280.48683358  .00000065  00000-0  10000-3 0  6415
2 27775 006.8754 054.7244 0038219 247.6244 112.0268 01.00480332 38369
0 COSMOS 2397
1 27775U 03015A   13282.47713401  .00000052  00000-0  10000-3 0  6426
2 27775 006.8793 054.7037 0038457 247.3416 112.2912 01.00481057 38389
0 COSMOS 2397
1 27775U 03015A   13285.46264585  .00000033  00000-0  10000-3 0  6432
2 27775 006.8849 054.6733 0038422 247.3920 112.2473 01.00482083 38411
0 COSMOS 2397
1 27775U 03015A   13288.44442005  .00000019  00000-0  10000-3 0  6443
2 27775 006.8910 054.6406 0039326 247.2509 111.0349 01.00482439 38439
0 COSMOS 2397
1 27775U 03015A   13289.44323346  .00000015  00000-0  10000-3 0  6457
2 27775 006.8923 054.6321 0038520 247.2473 112.3850 01.00483394 38458
0 COSMOS 2397
1 27775U 03015A   13290.43830029  .00000012  00000-0  10000-3 0  6467
2 27775 006.8946 054.6208 0038820 247.0660 112.5352 01.00483694 38469
0 COSMOS 2397
1 27775U 03015A   13293.42359065  .00000003  00000-0  10000-3 0  6476
2 27775 006.9003 054.5895 0038961 246.9430 112.6119 01.00484556 38497
